{"type":"FeatureCollection","features":[{"type":"Feature","geometry":{"type":"MultiPolygon","coordinates":[[[[1.7861,42.5736],[1.7732,42.5807],[1.7259,42.5904],[1.738,42.6113],[1.6836,42.6249],[1.662,42.6195],[1.6372,42.6303],[1.6064,42.6275],[1.5857,42.6336],[1.5624,42.6535],[1.5492,42.6558],[1.5014,42.6452],[1.4801,42.6514],[1.4695,42.6285],[1.4773,42.615],[1.4557,42.6021],[1.4402,42.6035],[1.4202,42.6261],[1.414,42.6548],[1.3877,42.671],[1.3896,42.6851],[1.3544,42.6995],[1.3579,42.7155],[1.325,42.7239],[1.2778,42.7139],[1.2525,42.7156],[1.2283,42.7274],[1.2172,42.7205],[1.1618,42.711],[1.1333,42.729],[1.1281,42.7554],[1.107,42.7723],[1.0706,42.7825],[0.9831,42.7871],[0.9599,42.8056],[0.9236,42.7904],[0.8583,42.8257],[0.8015,42.8405],[0.7865,42.836],[0.7377,42.8487],[0.7084,42.8614],[0.659,42.8385],[0.6699,42.8244],[0.6706,42.8048],[0.6445,42.7831],[0.6503,42.7642],[0.6823,42.709],[0.6706,42.6899],[0.6076,42.6991],[0.5868,42.695],[0.5296,42.7027],[0.5185,42.6919],[0.4777,42.7],[0.4356,42.6904],[0.4021,42.6965],[0.3926,42.7131],[0.3596,42.7234],[0.3262,42.7052],[0.3208,42.6831],[0.2928,42.6749],[0.2657,42.6959],[0.2601,42.7155],[0.2267,42.7174],[0.206,42.7293],[0.1757,42.7368],[0.1604,42.7244],[0.1366,42.7223],[0.1113,42.7102],[0.0904,42.7171],[0.046,42.6968],[0.0246,42.7025],[-0.0106,42.6844],[-0.0598,42.6934],[-0.0688,42.7179],[-0.1024,42.7216],[-0.1597,42.7974],[-0.1785,42.7854],[-0.2384,42.8082],[-0.2767,42.8355],[-0.3134,42.8494],[-0.3071,42.87],[-0.3272,42.9165],[-0.2816,42.9336],[-0.2923,42.9911],[-0.2872,43.0059],[-0.2648,43.01],[-0.2599,43.0383],[-0.2244,43.0338],[-0.2004,43.0427],[-0.1991,43.0644],[-0.1878,43.0833],[-0.191,43.1112],[-0.1709,43.1134],[-0.1461,43.1282],[-0.1263,43.1577],[-0.1177,43.1803],[-0.0679,43.1771],[-0.0725,43.2244],[-0.0459,43.2321],[-0.017,43.2705],[-0.0444,43.2853],[-0.0461,43.3009],[-0.0249,43.3295],[0.0103,43.3253],[0.0295,43.3462],[-0.0053,43.3738],[-0.0039,43.3935],[0.0097,43.4222],[-0.0165,43.4439],[-0.0337,43.4325],[-0.0427,43.4104],[-0.0696,43.433],[-0.0658,43.4635],[-0.034,43.4749],[-0.0493,43.4925],[-0.0401,43.5126],[-0.0644,43.5451],[-0.0889,43.5572],[-0.0968,43.5824],[-0.1216,43.5862],[-0.1604,43.5806],[-0.1729,43.5936],[-0.2047,43.5836],[-0.2106,43.5932],[-0.2428,43.585],[-0.2472,43.6159],[-0.2777,43.6162],[-0.2821,43.6431],[-0.2432,43.6545],[-0.2397,43.6712],[-0.2559,43.6798],[-0.2391,43.6939],[-0.2467,43.7107],[-0.2286,43.7154],[-0.1941,43.737],[-0.2061,43.7501],[-0.2271,43.8083],[-0.1925,43.8102],[-0.1986,43.8624],[-0.1946,43.8816],[-0.2344,43.899],[-0.2001,43.9148],[-0.176,43.9363],[-0.1663,43.9281],[-0.1247,43.9443],[-0.0724,43.9465],[-0.0465,43.961],[-0.0362,43.9837],[0.0014,43.9599],[0.0042,43.9434],[-0.0186,43.9314],[0.0308,43.9006],[0.0557,43.8976],[0.0725,43.9138],[0.071,43.9333],[0.0553,43.958],[0.076,43.9831],[0.141,43.9947],[0.1379,43.9769],[0.1635,43.9759],[0.1668,43.9968],[0.1896,44.0146],[0.2247,44.0192],[0.2352,44.0085],[0.2996,43.9928],[0.3576,44.0164],[0.3815,44.0064],[0.3945,44.02],[0.4424,44.0288],[0.4595,44.0552],[0.4858,44.0586],[0.5384,44.053],[0.5651,44.0592],[0.5765,44.0752],[0.6022,44.0737],[0.6279,44.0606],[0.6316,44.0495],[0.6771,44.027],[0.6877,44.0459],[0.7078,44.058],[0.7419,44.0652],[0.7384,44.0752],[0.7541,44.1049],[0.7962,44.1151],[0.7951,44.1456],[0.8205,44.1432],[0.8688,44.1263],[0.8885,44.1488],[0.8722,44.1679],[0.8536,44.175],[0.8597,44.1927],[0.9052,44.1973],[0.9292,44.2303],[0.9191,44.2383],[0.9505,44.275],[0.924,44.2887],[0.9164,44.3022],[0.8951,44.2968],[0.8696,44.3094],[0.8961,44.3462],[0.8873,44.3664],[0.8982,44.3814],[0.9199,44.3841],[0.9501,44.3598],[0.9806,44.3584],[0.9961,44.3686],[1.0498,44.3626],[1.0641,44.3785],[1.0514,44.3921],[1.0607,44.4036],[1.0575,44.4277],[1.03,44.4336],[1.0214,44.4445],[1.023,44.4754],[1.009,44.48],[1.0162,44.5059],[0.9824,44.5455],[1.0297,44.552],[1.0717,44.5678],[1.0751,44.5773],[1.0957,44.5902],[1.1537,44.6388],[1.1467,44.6703],[1.1688,44.68],[1.2246,44.6843],[1.2483,44.7077],[1.2794,44.7158],[1.3161,44.7404],[1.3228,44.7651],[1.2962,44.7778],[1.2996,44.7969],[1.3281,44.8065],[1.3641,44.8116],[1.3614,44.8408],[1.4019,44.8494],[1.4048,44.8623],[1.4398,44.8749],[1.4399,44.889],[1.4106,44.909],[1.4336,44.9383],[1.4093,45.006],[1.4483,45.0193],[1.4763,45.0184],[1.4837,45.0309],[1.5406,45.046],[1.552,45.0285],[1.5763,45.0407],[1.626,45.0339],[1.651,45.025],[1.6714,45.0043],[1.7027,44.9878],[1.711,44.9673],[1.7506,44.955],[1.7539,44.9409],[1.7746,44.9235],[1.7871,44.9322],[1.8239,44.9277],[1.8312,44.9455],[1.8863,44.9561],[1.9082,44.9784],[1.9391,44.9732],[1.9407,44.9551],[1.9817,44.9729],[2.0454,44.9837],[2.0629,44.9765],[2.0802,44.954],[2.0786,44.9325],[2.1081,44.9106],[2.0865,44.9011],[2.0934,44.8729],[2.1398,44.8238],[2.1668,44.8117],[2.167,44.7731],[2.1535,44.7531],[2.1473,44.7209],[2.1527,44.6998],[2.1792,44.6744],[2.165,44.6632],[2.1694,44.6381],[2.2075,44.6155],[2.2084,44.6438],[2.2286,44.6551],[2.2509,44.6519],[2.291,44.6666],[2.3268,44.6697],[2.3328,44.6506],[2.366,44.6413],[2.382,44.6509],[2.435,44.6389],[2.4522,44.6482],[2.4832,44.6503],[2.5009,44.6904],[2.5582,44.7235],[2.5545,44.7396],[2.5652,44.7782],[2.5994,44.7928],[2.5968,44.8198],[2.6116,44.8307],[2.6027,44.8432],[2.6239,44.8669],[2.6491,44.8697],[2.6578,44.8864],[2.6813,44.9074],[2.7064,44.9072],[2.7165,44.9291],[2.731,44.9367],[2.7564,44.9324],[2.7735,44.9151],[2.7783,44.8877],[2.7727,44.8555],[2.802,44.8736],[2.8135,44.8694],[2.8597,44.8745],[2.8553,44.8512],[2.8704,44.8294],[2.8796,44.803],[2.8935,44.7863],[2.9202,44.7943],[2.9345,44.7792],[2.9208,44.7657],[2.9348,44.744],[2.9251,44.7271],[2.943,44.677],[2.973,44.6457],[2.9817,44.6447],[3.016,44.7137],[3.0286,44.73],[3.0311,44.7494],[3.048,44.7655],[3.0481,44.8043],[3.0715,44.8341],[3.0995,44.8336],[3.0936,44.8537],[3.1055,44.8868],[3.1411,44.9033],[3.166,44.8743],[3.1823,44.8637],[3.216,44.875],[3.2366,44.888],[3.2291,44.9093],[3.2497,44.9162],[3.2438,44.9335],[3.286,44.9264],[3.2989,44.9386],[3.3379,44.9559],[3.3613,44.9714],[3.3864,44.9527],[3.4046,44.9564],[3.4158,44.9285],[3.4104,44.9178],[3.4357,44.8802],[3.4418,44.8542],[3.4588,44.8399],[3.4782,44.8097],[3.5057,44.8238],[3.5397,44.8282],[3.5889,44.8264],[3.598,44.8595],[3.5943,44.8754],[3.6265,44.8803],[3.6549,44.8742],[3.6718,44.8434],[3.669,44.8289],[3.7229,44.831],[3.7444,44.8378],[3.7527,44.821],[3.8025,44.7822],[3.8429,44.7677],[3.8366,44.7478],[3.8625,44.7439],[3.8699,44.6789],[3.8947,44.6511],[3.8937,44.6178],[3.9083,44.6066],[3.9236,44.5719],[3.9488,44.5729],[3.9817,44.5151],[3.9877,44.4728],[3.9982,44.4598],[4.0376,44.4457],[4.0478,44.4181],[4.0684,44.4051],[4.053,44.3787],[4.0534,44.3393],[4.0369,44.3308],[4.0515,44.3173],[4.0716,44.3273],[4.1268,44.3377],[4.1429,44.3134],[4.1777,44.3179],[4.1867,44.2997],[4.2153,44.2907],[4.2413,44.2701],[4.2588,44.2648],[4.2775,44.2747],[4.2894,44.2932],[4.2884,44.3147],[4.3217,44.324],[4.3361,44.3395],[4.3668,44.3395],[4.3865,44.3466],[4.4032,44.3339],[4.3908,44.303],[4.399,44.2889],[4.4328,44.287],[4.4484,44.2966],[4.4511,44.3346],[4.4576,44.3416],[4.5033,44.3392],[4.5445,44.3208],[4.5569,44.3041],[4.6068,44.2905],[4.6181,44.2785],[4.6381,44.283],[4.6492,44.2704],[4.6541,44.2543],[4.6748,44.2386],[4.6766,44.2126],[4.7065,44.2144],[4.7058,44.1928],[4.7221,44.1874],[4.7075,44.1037],[4.7301,44.079],[4.7579,44.0772],[4.788,44.0651],[4.7891,44.0522],[4.8377,44.0149],[4.8421,43.9865],[4.816,43.9888],[4.8151,43.9676],[4.779,43.9379],[4.7391,43.9241],[4.7234,43.906],[4.6933,43.885],[4.6419,43.8675],[4.6663,43.8448],[4.6424,43.8314],[4.6548,43.8023],[4.6512,43.7823],[4.63,43.7627],[4.6136,43.7298],[4.613,43.7143],[4.6277,43.6905],[4.593,43.6875],[4.5819,43.6964],[4.5369,43.7075],[4.4872,43.6992],[4.4755,43.6711],[4.4542,43.6666],[4.427,43.6207],[4.4397,43.6107],[4.4752,43.6083],[4.4503,43.5836],[4.4255,43.5852],[4.4093,43.5611],[4.3537,43.5474],[4.2959,43.5145],[4.2397,43.4992],[4.2303,43.4602],[4.1656,43.4719],[4.1272,43.4895],[4.1169,43.509],[4.1389,43.5321],[4.101,43.5544],[4.0561,43.5575],[4.0112,43.5524],[3.9686,43.54],[3.9071,43.5168],[3.8512,43.4865],[3.7967,43.441],[3.7249,43.4158],[3.7256,43.4012],[3.6928,43.3929],[3.6622,43.3923],[3.6026,43.3554],[3.5582,43.3189],[3.5098,43.2719],[3.4672,43.2768],[3.4303,43.2902],[3.3869,43.2841],[3.3439,43.2704],[3.2634,43.2289],[3.2406,43.2128],[3.1773,43.1654],[3.1408,43.1288],[3.0929,43.0691],[3.074,43.0381],[3.0428,42.9602],[3.0405,42.9297],[3.0606,42.9171],[3.0435,42.8382],[3.0393,42.7998],[3.0387,42.7312],[3.0354,42.6782],[3.0371,42.6261],[3.0452,42.5946],[3.0496,42.5501],[3.0571,42.5372],[3.0869,42.5241],[3.1056,42.5256],[3.1381,42.5149],[3.123,42.505],[3.1331,42.4813],[3.153,42.4778],[3.1573,42.4594],[3.1742,42.4356],[3.1208,42.438],[3.0854,42.4255],[3.049,42.4555],[3.0408,42.4731],[3.0126,42.4665],[2.9889,42.4738],[2.969,42.4658],[2.947,42.4818],[2.9245,42.4584],[2.8635,42.4637],[2.8414,42.4585],[2.8148,42.4388],[2.7992,42.4186],[2.772,42.4124],[2.7532,42.4254],[2.7163,42.4209],[2.6738,42.4045],[2.6556,42.3884],[2.6718,42.3412],[2.6113,42.3468],[2.5778,42.3579],[2.5546,42.3539],[2.54,42.3338],[2.5003,42.3429],[2.483,42.3396],[2.4675,42.3589],[2.4335,42.3771],[2.4355,42.3889],[2.3492,42.4067],[2.307,42.4288],[2.2924,42.423],[2.2567,42.4384],[2.2467,42.4295],[2.2011,42.4163],[2.1563,42.4234],[2.1289,42.4125],[2.1151,42.382],[2.0895,42.3737],[2.0836,42.3627],[2.0235,42.3552],[1.9859,42.362],[1.9605,42.3919],[1.9583,42.424],[1.9417,42.4297],[1.9353,42.4536],[1.9166,42.4463],[1.8855,42.4493],[1.8814,42.4597],[1.8498,42.4673],[1.8434,42.4771],[1.8031,42.4896],[1.7633,42.4868],[1.7312,42.4927],[1.7263,42.5174],[1.7359,42.5505],[1.7548,42.5649],[1.7861,42.5736]],[[1.9601,42.4705],[1.9598,42.4533],[1.9813,42.4475],[2.0127,42.4483],[1.9865,42.4758],[1.9601,42.4705]]],[[[-0.1031,43.2428],[-0.1219,43.2434],[-0.1406,43.2719],[-0.1374,43.2857],[-0.1119,43.3104],[-0.092,43.3005],[-0.0962,43.2855],[-0.0798,43.2624],[-0.1031,43.2428]]],[[[-0.1033,43.3586],[-0.0832,43.3714],[-0.0625,43.3467],[-0.075,43.3071],[-0.1103,43.313],[-0.1155,43.3324],[-0.0873,43.3338],[-0.0901,43.3589],[-0.1033,43.3586]]]]},"properties":{"code":"76","nom":"Occitanie"}}]}